{
    "links": {
        "self": "http://www.neowsapp.com/rest/v1/neo/3475990?api_key=iIulBulltgU6a56xZRHN4H3l9WmuAYTsLGpBGhQ2"
    },
    "id": "3475990",
    "neo_reference_id": "3475990",
    "name": "(2009 VJ24)",
    "designation": "2009 VJ24",
    "nasa_jpl_url": "http://ssd.jpl.nasa.gov/sbdb.cgi?sstr=3475990",
    "absolute_magnitude_h": 22.1,
    "estimated_diameter": {
        "kilometers": {
            "estimated_diameter_min": 0.1010543415,
            "estimated_diameter_max": 0.2259643771
        },
        "meters": {
            "estimated_diameter_min": 101.054341542,
            "estimated_diameter_max": 225.9643771094
        },
        "miles": {
            "estimated_diameter_min": 0.0627922373,
            "estimated_diameter_max": 0.140407711
        },
        "feet": {
            "estimated_diameter_min": 331.5431259047,
            "estimated_diameter_max": 741.3529669956
        }
    },
    "is_potentially_hazardous_asteroid": false,
    "close_approach_data": [
        {
            "close_approach_date": "2009-12-11",
            "close_approach_date_full": "2009-Dec-11 23:43",
            "epoch_date_close_approach": 1260574980000,
            "relative_velocity": {
                "kilometers_per_second": "8.0790449688",
                "kilometers_per_hour": "29084.5618878201",
                "miles_per_hour": "18072.0156907958"
            },
            "miss_distance": {
                "astronomical": "0.156263845",
                "lunar": "60.786635705",
                "kilometers": "23376738.37001015",
                "miles": "14525631.66063407"
            },
            "orbiting_body": "Earth"
        },
        {
            "close_approach_date": "2190-10-20",
            "close_approach_date_full": "2190-Oct-20 01:33",
            "epoch_date_close_approach": 6967819980000,
            "relative_velocity": {
                "kilometers_per_second": "23.3364675215",
                "kilometers_per_hour": "84011.28307745",
                "miles_per_hour": "52201.3441988744"
            },
            "miss_distance": {
                "astronomical": "0.4723601013",
                "lunar": "183.7480794057",
                "kilometers": "70664065.027464231",
                "miles": "43908613.9385831478"
            },
            "orbiting_body": "Earth"
        }
    ],
    "orbital_data": {
        "orbit_id": "9",
        "orbit_determination_date": "2017-04-06 08:59:15",
        "first_observation_date": "2009-11-09",
        "last_observation_date": "2009-11-28",
        "data_arc_in_days": 19,
        "observations_used": 22,
        "orbit_uncertainty": "8",
        "minimum_orbit_intersection": ".0669725",
        "jupiter_tisserand_invariant": "3.883",
        "epoch_osculation": "2455149.5",
        "eccentricity": ".479606329378592",
        "semi_major_axis": "1.815510824235366",
        "inclination": "11.29253153298286",
        "ascending_node_longitude": "37.05922456224076",
        "orbital_period": "893.5043901410475",
        "perihelion_distance": ".9447803418767403",
        "perihelion_argument": "57.46286094206032",
        "aphelion_distance": "2.686241306593992",
        "perihelion_time": "2455193.100645189374",
        "mean_anomaly": "342.4329545088224",
        "mean_motion": ".4029079252125117",
        "equinox": "J2000",
        "orbit_class": {
            "orbit_class_type": "APO",
            "orbit_class_description": "Near-Earth asteroid orbits which cross the Earth’s orbit similar to that of 1862 Apollo",
            "orbit_class_range": "a (semi-major axis) > 1.0 AU; q (perihelion) < 1.017 AU"
        }
    },
    "is_sentry_object": false
}